[
    {
        "Altitude(m)": 706716.7560411557,
        "Argument of Periapsis(deg)": 0.006834072711976239,
        "Eccentricity": 0.0,
        "Inclination(deg)": 45.0,
        "Latitude(deg)": 42.519952357970595,
        "Longitude(deg)": -64.66207659310543,
        "Mean Anomaly(deg)": -287.62557001151146,
        "RAAN(deg)": 329.99354883512507,
        "Satellite Name": "Constellation 1 1456",
        "Satellite Number": 1456,
        "Semi-Major Axis(m)": 7083131.272910544,
        "Time(s)": 114
    },
    {
        "Altitude(m)": 706720.6616120029,
        "Argument of Periapsis(deg)": 0.006894020718221645,
        "Eccentricity": 0.0,
        "Inclination(deg)": 45.0,
        "Latitude(deg)": 42.53757157530618,
        "Longitude(deg)": -64.5875014576823,
        "Mean Anomaly(deg)": -287.56486887126164,
        "RAAN(deg)": 329.99349224595943,
        "Satellite Name": "Constellation 1 1456",
        "Satellite Number": 1456,
        "Semi-Major Axis(m)": 7083131.272910544,
        "Time(s)": 115
    },
    {
        "Altitude(m)": 706724.5560035616,
        "Argument of Periapsis(deg)": 0.006953968724467052,
        "Eccentricity": 0.0,
        "Inclination(deg)": 45.0,
        "Latitude(deg)": 42.55513670261418,
        "Longitude(deg)": -64.51288216919274,
        "Mean Anomaly(deg)": -287.5041677310117,
        "RAAN(deg)": 329.9934356567939,
        "Satellite Name": "Constellation 1 1456",
        "Satellite Number": 1456,
        "Semi-Major Axis(m)": 7083131.272910544,
        "Time(s)": 116
    },
    {
        "Altitude(m)": 706728.4391927083,
        "Argument of Periapsis(deg)": 0.007013916730712457,
        "Eccentricity": 0.0,
        "Inclination(deg)": 45.0,
        "Latitude(deg)": 42.57264767691985,
        "Longitude(deg)": -64.43821881159506,
        "Mean Anomaly(deg)": -287.4434665907618,
        "RAAN(deg)": 329.9933790676283,
        "Satellite Name": "Constellation 1 1456",
        "Satellite Number": 1456,
        "Semi-Major Axis(m)": 7083131.272910544,
        "Time(s)": 117
    },
    {
        "Altitude(m)": 706732.3111563969,
        "Argument of Periapsis(deg)": 0.007073864736957864,
        "Eccentricity": 0.0,
        "Inclination(deg)": 45.0,
        "Latitude(deg)": 42.59010443535218,
        "Longitude(deg)": -64.36351146941166,
        "Mean Anomaly(deg)": -287.3827654505119,
        "RAAN(deg)": 329.9933224784628,
        "Satellite Name": "Constellation 1 1456",
        "Satellite Number": 1456,
        "Semi-Major Axis(m)": 7083131.272910544,
        "Time(s)": 118
    },
    {
        "Altitude(m)": 706736.1718716372,
        "Argument of Periapsis(deg)": 0.0071338127432032696,
        "Eccentricity": 0.0,
        "Inclination(deg)": 45.0,
        "Latitude(deg)": 42.60750691514493,
        "Longitude(deg)": -64.28876039582515,
        "Mean Anomaly(deg)": -287.322064310262,
        "RAAN(deg)": 329.9932658892972,
        "Satellite Name": "Constellation 1 1456",
        "Satellite Number": 1456,
        "Semi-Major Axis(m)": 7083131.272910544,
        "Time(s)": 119
    },
    {
        "Altitude(m)": 706740.0213155203,
        "Argument of Periapsis(deg)": 0.007193760749448674,
        "Eccentricity": 0.0,
        "Inclination(deg)": 45.0,
        "Latitude(deg)": 42.62485505363784,
        "Longitude(deg)": -64.21396534029184,
        "Mean Anomaly(deg)": -287.2613631700121,
        "RAAN(deg)": 329.9932093001316,
        "Satellite Name": "Constellation 1 1456",
        "Satellite Number": 1456,
        "Semi-Major Axis(m)": 7083131.272910544,
        "Time(s)": 120
    },
    {
        "Altitude(m)": 706743.8594651999,
        "Argument of Periapsis(deg)": 0.007253708755694079,
        "Eccentricity": 0.0,
        "Inclination(deg)": 45.0,
        "Latitude(deg)": 42.64214878827686,
        "Longitude(deg)": -64.13912655712225,
        "Mean Anomaly(deg)": -287.20066202976216,
        "RAAN(deg)": 329.99315271096606,
        "Satellite Name": "Constellation 1 1456",
        "Satellite Number": 1456,
        "Semi-Major Axis(m)": 7083131.272910544,
        "Time(s)": 121
    },
    {
        "Altitude(m)": 706747.6862979088,
        "Argument of Periapsis(deg)": 0.0073136567619394854,
        "Eccentricity": 0.0,
        "Inclination(deg)": 45.0,
        "Latitude(deg)": 42.659388056615576,
        "Longitude(deg)": -64.06424413309483,
        "Mean Anomaly(deg)": -287.1399608895123,
        "RAAN(deg)": 329.9930961218005,
        "Satellite Name": "Constellation 1 1456",
        "Satellite Number": 1456,
        "Semi-Major Axis(m)": 7083131.272910544,
        "Time(s)": 122
    },
    {
        "Altitude(m)": 706751.5017909356,
        "Argument of Periapsis(deg)": 0.0073736047681848904,
        "Eccentricity": 0.0,
        "Inclination(deg)": 45.0,
        "Latitude(deg)": 42.67657279631589,
        "Longitude(deg)": -63.989318155552425,
        "Mean Anomaly(deg)": -287.07925974926246,
        "RAAN(deg)": 329.99303953263495,
        "Satellite Name": "Constellation 1 1456",
        "Satellite Number": 1456,
        "Semi-Major Axis(m)": 7083131.272910544,
        "Time(s)": 123
    },
    {
        "Altitude(m)": 706755.3059216584,
        "Argument of Periapsis(deg)": 0.007433552774430298,
        "Eccentricity": 0.0,
        "Inclination(deg)": 45.0,
        "Latitude(deg)": 42.69370294514903,
        "Longitude(deg)": -63.91434871240236,
        "Mean Anomaly(deg)": -287.01855860901253,
        "RAAN(deg)": 329.99298294346937,
        "Satellite Name": "Constellation 1 1456",
        "Satellite Number": 1456,
        "Semi-Major Axis(m)": 7083131.272910544,
        "Time(s)": 124
    },
    {
        "Altitude(m)": 706759.0986675043,
        "Argument of Periapsis(deg)": 0.007493500780675703,
        "Eccentricity": 0.0,
        "Inclination(deg)": 45.0,
        "Latitude(deg)": 42.71077844099626,
        "Longitude(deg)": -63.839335892117525,
        "Mean Anomaly(deg)": -286.9578574687626,
        "RAAN(deg)": 329.9929263543038,
        "Satellite Name": "Constellation 1 1456",
        "Satellite Number": 1456,
        "Semi-Major Axis(m)": 7083131.272910544,
        "Time(s)": 125
    },
    {
        "Altitude(m)": 706762.8800059818,
        "Argument of Periapsis(deg)": 0.007553448786921108,
        "Eccentricity": 0.0,
        "Inclination(deg)": 45.0,
        "Latitude(deg)": 42.727799221850034,
        "Longitude(deg)": -63.76427995183171,
        "Mean Anomaly(deg)": -286.8971563285128,
        "RAAN(deg)": 329.9928697651382,
        "Satellite Name": "Constellation 1 1456",
        "Satellite Number": 1456,
        "Semi-Major Axis(m)": 7083131.272910544,
        "Time(s)": 126
    },
    {
        "Altitude(m)": 706766.649914679,
        "Argument of Periapsis(deg)": 0.007613396793166514,
        "Eccentricity": 0.0,
        "Inclination(deg)": 45.0,
        "Latitude(deg)": 42.74476522581485,
        "Longitude(deg)": -63.68918064495408,
        "Mean Anomaly(deg)": -286.8364551882628,
        "RAAN(deg)": 329.99281317597263,
        "Satellite Name": "Constellation 1 1456",
        "Satellite Number": 1456,
        "Semi-Major Axis(m)": 7083131.272910544,
        "Time(s)": 127
    },
    {
        "Altitude(m)": 706770.4083712352,
        "Argument of Periapsis(deg)": 0.007673344799411918,
        "Eccentricity": 0.0,
        "Inclination(deg)": 45.0,
        "Latitude(deg)": 42.76167639110791,
        "Longitude(deg)": -63.61403822974935,
        "Mean Anomaly(deg)": -286.77575404801297,
        "RAAN(deg)": 329.9927565868071,
        "Satellite Name": "Constellation 1 1456",
        "Satellite Number": 1456,
        "Semi-Major Axis(m)": 7083131.272910544,
        "Time(s)": 128
    },
    {
        "Altitude(m)": 706774.1553533744,
        "Argument of Periapsis(deg)": 0.007733292805657325,
        "Eccentricity": 0.0,
        "Inclination(deg)": 45.0,
        "Latitude(deg)": 42.77853265606038,
        "Longitude(deg)": -63.5388527969503,
        "Mean Anomaly(deg)": -286.715052907763,
        "RAAN(deg)": 329.9926999976415,
        "Satellite Name": "Constellation 1 1456",
        "Satellite Number": 1456,
        "Semi-Major Axis(m)": 7083131.272910544,
        "Time(s)": 129
    },
    {
        "Altitude(m)": 706777.8908388837,
        "Argument of Periapsis(deg)": 0.00779324081190273,
        "Eccentricity": 0.0,
        "Inclination(deg)": 45.0,
        "Latitude(deg)": 42.79533395911785,
        "Longitude(deg)": -63.463624437856005,
        "Mean Anomaly(deg)": -286.65435176751316,
        "RAAN(deg)": 329.99264340847594,
        "Satellite Name": "Constellation 1 1456",
        "Satellite Number": 1456,
        "Semi-Major Axis(m)": 7083131.272910544,
        "Time(s)": 130
    },
    {
        "Altitude(m)": 706781.6148056246,
        "Argument of Periapsis(deg)": 0.007853188818148135,
        "Eccentricity": 0.0,
        "Inclination(deg)": 45.0,
        "Latitude(deg)": 42.81208023884175,
        "Longitude(deg)": -63.38835324433039,
        "Mean Anomaly(deg)": -286.59365062726323,
        "RAAN(deg)": 329.99258681931036,
        "Satellite Name": "Constellation 1 1456",
        "Satellite Number": 1456,
        "Semi-Major Axis(m)": 7083131.272910544,
        "Time(s)": 131
    },
    {
        "Altitude(m)": 706785.3272315335,
        "Argument of Periapsis(deg)": 0.007913136824393542,
        "Eccentricity": 0.0,
        "Inclination(deg)": 45.0,
        "Latitude(deg)": 42.82877143390991,
        "Longitude(deg)": -63.31303930880309,
        "Mean Anomaly(deg)": -286.5329494870133,
        "RAAN(deg)": 329.9925302301448,
        "Satellite Name": "Constellation 1 1456",
        "Satellite Number": 1456,
        "Semi-Major Axis(m)": 7083131.272910544,
        "Time(s)": 132
    }
]